{"spkid": "20251722", "covariance": {"labels": ["e", "q", "tp", "node", "peri", "i"], "data": [["4.874293137204777E-16", "-8.133317690541025E-16", "3.704155257273274E-14", "-1.137348760533237E-14", "5.593668177658589E-14", "2.112131130666081E-15"], ["-8.133317690541025E-16", "1.358142691481184E-15", "-6.9069669943388E-14", "1.747543918125629E-14", "-9.369455295711196E-14", "-3.425887813910193E-15"], ["3.704155257273274E-14", "-6.9069669943388E-14", "3.611592354263921E-10", "7.686461808303106E-11", "4.718349679703974E-11", "-5.262140005464268E-12"], ["-1.137348760533237E-14", "1.747543918125629E-14", "7.686461808303106E-11", "2.818776928814151E-9", "-2.787896624493347E-9", "-5.534344462225376E-11"], ["5.593668177658589E-14", "-9.369455295711196E-14", "4.718349679703974E-11", "-2.787896624493347E-9", "2.810847098189987E-9", "5.373553481755114E-11"], ["2.112131130666081E-15", "-3.425887813910193E-15", "-5.262140005464268E-12", "-5.534344462225376E-11", "5.373553481755114E-11", "3.180516345368874E-11"]], "elements": [{"title": "eccentricity", "value": ".6613448829544523", "units": null, "name": "e", "sigma": 2.20778013787713e-08, "label": "e"}, {"label": "q", "sigma": 3.6852987551638e-08, "name": "q", "units": "au", "title": "perihelion distance", "value": ".5669775355154261"}, {"sigma": 1.90041899439674e-05, "name": "tp", "units": "TDB", "title": "time of perihelion passage", "value": "2457971.907230511845", "label": "tp"}, {"value": "66.01023462791284", "title": "longitude of the ascending node", "units": "deg", "name": "om", "sigma": 5.30921550590495e-05, "label": "node"}, {"label": "peri", "name": "w", "sigma": 5.30174225909746e-05, "units": "deg", "title": "argument of perihelion", "value": "100.19861535613"}, {"label": "i", "units": "deg", "title": "inclination", "value": "3.17054356211107", "name": "i", "sigma": 5.63960667544189e-06}], "epoch": "2458175.5"}, "elements": [{"label": "e", "value": ".6609903007630776", "title": "eccentricity", "units": null, "name": "e", "sigma": "2.1984E-8"}, {"sigma": "2.9535E-9", "name": "a", "value": "1.674874762860149", "title": "semi-major axis", "units": "au", "label": "a"}, {"label": "q", "value": ".5677987896167309", "title": "perihelion distance", "units": "au", "sigma": "3.6695E-8", "name": "q"}, {"units": "deg", "title": "inclination; angle with respect to x-y ecliptic plane", "value": "3.170915760165876", "sigma": "5.6434E-6", "name": "i", "label": "i"}, {"sigma": "5.3054E-5", "name": "om", "units": "deg", "title": "longitude of the ascending node", "value": "65.8783577905272", "label": "node"}, {"sigma": "5.298E-5", "name": "w", "value": "100.32382336", "title": "argument of perihelion", "units": "deg", "label": "peri"}, {"name": "ma", "sigma": "8.0365E-6", "title": "mean anomaly", "value": "28.46258640354647", "units": "deg", "label": "M"}, {"name": "tp", "sigma": "1.7671E-5", "value": "2461137.904401524820", "title": "time of perihelion passage", "units": "TDB", "label": "tp"}, {"name": "per", "sigma": "2.0942E-6", "units": "d", "value": "791.7205812419438", "title": "sidereal orbital period", "label": "period"}, {"units": "deg/d", "value": ".4547058754431783", "title": "mean motion", "name": "n", "sigma": "1.2027E-9", "label": "n"}, {"label": "Q", "title": "aphelion distance", "value": "2.781950736103568", "units": "au", "name": "ad", "sigma": "4.9057E-9"}], "epoch": "2461200.5"}